$$SOE
2461295.500000000, A.D. 2026-Sep-12 00:00:00.0000, -4.366582990909128E+08, -2.195351552004045E+08, -1.795691130996078E+06,
2461302.500000000, A.D. 2026-Sep-19 00:00:00.0000, -4.335468416398118E+08, -2.287069303068351E+08, -1.891516746331826E+06,
2461309.500000000, A.D. 2026-Sep-26 00:00:00.0000, -4.302566657740487E+08, -2.377844311119575E+08, -1.986562016144678E+06,
2461316.500000000, A.D. 2026-Oct-03 00:00:00.0000, -4.267906598034341E+08, -2.467647648234243E+08, -2.080794762651667E+06,
2461323.500000000, A.D. 2026-Oct-10 00:00:00.0000, -4.231517252872015E+08, -2.556451230687231E+08, -2.174183676641449E+06,
2461330.500000000, A.D. 2026-Oct-17 00:00:00.0000, -4.193427752791601E+08, -2.644227800067521E+08, -2.266698295379788E+06,
2461337.500000000, A.D. 2026-Oct-24 00:00:00.0000, -4.153667326952385E+08, -2.730950905462375E+08, -2.358308988173708E+06,
2461344.500000000, A.D. 2026-Oct-31 00:00:00.0000, -4.112265287001653E+08, -2.816594887407550E+08, -2.448986963994488E+06,
2461351.500000000, A.D. 2026-Nov-07 00:00:00.0000, -4.069251007698073E+08, -2.901134862890715E+08, -2.538704326056436E+06,
2461358.500000000, A.D. 2026-Nov-14 00:00:00.0000, -4.024653902238343E+08, -2.984546702557988E+08, -2.627434119060129E+06,
2461365.500000000, A.D. 2026-Nov-21 00:00:00.0000, -3.978503410357231E+08, -3.066806993325780E+08, -2.715150146999329E+06,
2461372.500000000, A.D. 2026-Nov-28 00:00:00.0000, -3.930829009137023E+08, -3.147893016503678E+08, -2.801826715654671E+06,
2461379.500000000, A.D. 2026-Dec-05 00:00:00.0000, -3.881660210298383E+08, -3.227782748019384E+08, -2.887438685194209E+06,
2461386.500000000, A.D. 2026-Dec-12 00:00:00.0000, -3.831026542293329E+08, -3.306454849652166E+08, -2.971961593439087E+06,
2461393.500000000, A.D. 2026-Dec-19 00:00:00.0000, -3.778957536033667E+08, -3.383888651217639E+08, -3.055371675848663E+06,
2461400.500000000, A.D. 2026-Dec-26 00:00:00.0000, -3.725482715636218E+08, -3.460064132393909E+08, -3.137645839892626E+06,
2461407.500000000, A.D. 2027-Jan-02 00:00:00.0000, -3.670631591390064E+08, -3.534961906113490E+08, -3.218761634616762E+06,
2461414.500000000, A.D. 2027-Jan-09 00:00:00.0000, -3.614433653749847E+08, -3.608563203336260E+08, -3.298697224425912E+06,
2461421.500000000, A.D. 2027-Jan-16 00:00:00.0000, -3.556918367983575E+08, -3.680849859129758E+08, -3.377431369560167E+06,
2461428.500000000, A.D. 2027-Jan-23 00:00:00.0000, -3.498115169001602E+08, -3.751804300464301E+08, -3.454943420700729E+06,
2461435.500000000, A.D. 2027-Jan-30 00:00:00.0000, -3.438053454478839E+08, -3.821409536209468E+08, -3.531213348855078E+06,
2461442.500000000, A.D. 2027-Feb-06 00:00:00.0000, -3.376762572013974E+08, -3.889649145937336E+08, -3.606221821760774E+06,
2461449.500000000, A.D. 2027-Feb-13 00:00:00.0000, -3.314271804918814E+08, -3.956507255335669E+08, -3.679950185003668E+06,
2461456.500000000, A.D. 2027-Feb-20 00:00:00.0000, -3.250610380259786E+08, -4.021968506135656E+08, -3.752380195837438E+06,
2461463.500000000, A.D. 2027-Feb-27 00:00:00.0000, -3.185807485170936E+08, -4.086018052688795E+08, -3.823493900581926E+06,
2461470.500000000, A.D. 2027-Mar-06 00:00:00.0000, -3.119892261237471E+08, -4.148641565968189E+08, -3.893273775477976E+06,
2461477.500000000, A.D. 2027-Mar-13 00:00:00.0000, -3.052893792927588E+08, -4.209825224496145E+08, -3.961702816873431E+06,
2461484.500000000, A.D. 2027-Mar-20 00:00:00.0000, -2.984841101336859E+08, -4.269555700542628E+08, -4.028764545543611E+06,
2461491.500000000, A.D. 2027-Mar-27 00:00:00.0000, -2.915763141197991E+08, -4.327820147089298E+08, -4.094442988765329E+06,
2461498.500000000, A.D. 2027-Apr-03 00:00:00.0000, -2.845688799107574E+08, -4.384606186046236E+08, -4.158722662874848E+06,
2461505.500000000, A.D. 2027-Apr-10 00:00:00.0000, -2.774646892345231E+08, -4.439901897499186E+08, -4.221588560181469E+06,
2461512.500000000, A.D. 2027-Apr-17 00:00:00.0000, -2.702666168055106E+08, -4.493695810133305E+08, -4.283026143472403E+06,
2461519.500000000, A.D. 2027-Apr-24 00:00:00.0000, -2.629775301987101E+08, -4.545976893452152E+08, -4.343021360431939E+06,
2461526.500000000, A.D. 2027-May-01 00:00:00.0000, -2.556002893788571E+08, -4.596734551507605E+08, -4.401560703131109E+06,
2461533.500000000, A.D. 2027-May-08 00:00:00.0000, -2.481377455757847E+08, -4.645958610648217E+08, -4.458631279558152E+06,
2461540.500000000, A.D. 2027-May-15 00:00:00.0000, -2.405927410011033E+08, -4.693639291739833E+08, -4.514220681926012E+06,
2461547.500000000, A.D. 2027-May-22 00:00:00.0000, -2.329681109678792E+08, -4.739767192762566E+08, -4.568316720112503E+06,
2461554.500000000, A.D. 2027-May-29 00:00:00.0000, -2.252666850553692E+08, -4.784333296464522E+08, -4.620907448007613E+06,
2461561.500000000, A.D. 2027-Jun-05 00:00:00.0000, -2.174912864326725E+08, -4.827328971756184E+08, -4.671981307879657E+06,
2461568.500000000, A.D. 2027-Jun-12 00:00:00.0000, -2.096447313475944E+08, -4.868745964523378E+08, -4.721527173175395E+06,
2461575.500000000, A.D. 2027-Jun-19 00:00:00.0000, -2.017298291102977E+08, -4.908576387202415E+08, -4.769534335628569E+06,
2461582.500000000, A.D. 2027-Jun-26 00:00:00.0000, -1.937493822908236E+08, -4.946812709726015E+08, -4.815992483484656E+06,
2461589.500000000, A.D. 2027-Jul-03 00:00:00.0000, -1.857061869969577E+08, -4.983447751755545E+08, -4.860891682106704E+06,
2461596.500000000, A.D. 2027-Jul-10 00:00:00.0000, -1.776030331944726E+08, -5.018474676113671E+08, -4.904222359433651E+06,
2461603.500000000, A.D. 2027-Jul-17 00:00:00.0000, -1.694427050326047E+08, -5.051886983807991E+08, -4.945975302561849E+06,
2461610.500000000, A.D. 2027-Jul-24 00:00:00.0000, -1.612279810177511E+08, -5.083678511273938E+08, -4.986141684674203E+06,
2461617.500000000, A.D. 2027-Jul-31 00:00:00.0000, -1.529616336234221E+08, -5.113843427479942E+08, -5.024713140547514E+06,
2461624.500000000, A.D. 2027-Aug-07 00:00:00.0000, -1.446464285366136E+08, -5.142376219372796E+08, -5.061681777897656E+06,
2461631.500000000, A.D. 2027-Aug-14 00:00:00.0000, -1.362851258408950E+08, -5.169271668187032E+08, -5.097039934091389E+06,
2461638.500000000, A.D. 2027-Aug-21 00:00:00.0000, -1.278804825167074E+08, -5.194524850252240E+08, -5.130780009878069E+06,
2461645.500000000, A.D. 2027-Aug-28 00:00:00.0000, -1.194352528267142E+08, -5.218131150268478E+08, -5.162894596567214E+06,
2461652.500000000, A.D. 2027-Sep-04 00:00:00.0000, -1.109521877668341E+08, -5.240086262030380E+08, -5.193376583921969E+06,
2461659.500000000, A.D. 2027-Sep-11 00:00:00.0000, -1.024340349778070E+08, -5.260386183211142E+08, -5.222219174999505E+06,
2461666.500000000, A.D. 2027-Sep-18 00:00:00.0000, -9.388353898350362E+07, -5.279027210703071E+08, -5.249415873512924E+06,
2461673.500000000, A.D. 2027-Sep-25 00:00:00.0000, -8.530344152641042E+07, -5.296005937284855E+08, -5.274960471319616E+06,
2461680.500000000, A.D. 2027-Oct-02 00:00:00.0000, -7.669648192444754E+07, -5.311319249334340E+08, -5.298847040959001E+06,
2461687.500000000, A.D. 2027-Oct-09 00:00:00.0000, -6.806539742591177E+07, -5.324964325628268E+08, -5.321069935939282E+06,
2461694.500000000, A.D. 2027-Oct-16 00:00:00.0000, -5.941292349885783E+07, -5.336938637775178E+08, -5.341623809262812E+06,
2461701.500000000, A.D. 2027-Oct-23 00:00:00.0000, -5.074179379478773E+07, -5.347239952334055E+08, -5.360503674624026E+06,
2461708.500000000, A.D. 2027-Oct-30 00:00:00.0000, -4.205473941175891E+07, -5.355866328506802E+08, -5.377704994843602E+06,
2461715.500000000, A.D. 2027-Nov-06 00:00:00.0000, -3.335448861997543E+07, -5.362816100109025E+08, -5.393223598686814E+06,
2461722.500000000, A.D. 2027-Nov-13 00:00:00.0000, -2.464376903425231E+07, -5.368087862563000E+08, -5.407055413747519E+06,
2461729.500000000, A.D. 2027-Nov-20 00:00:00.0000, -1.592530932969538E+07, -5.371680486762702E+08, -5.419196460312515E+06,
2461736.500000000, A.D. 2027-Nov-27 00:00:00.0000, -7.201838881508895E+06, -5.373593130174577E+08, -5.429643012350887E+06,
2461743.500000000, A.D. 2027-Dec-04 00:00:00.0000, 1.523912648155424E+06, -5.373825236047590E+08, -5.438391665313780E+06,
2461750.500000000, A.D. 2027-Dec-11 00:00:00.0000, 1.024921522586152E+07, -5.372376530380384E+08, -5.445439338947028E+06,
2461757.500000000, A.D. 2027-Dec-18 00:00:00.0000, 1.897133813999037E+07, -5.369247020039343E+08, -5.450783267934531E+06,
2461764.500000000, A.D. 2027-Dec-25 00:00:00.0000, 2.768754962329461E+07, -5.364436992047062E+08, -5.454420994375497E+06,
2461771.500000000, A.D. 2028-Jan-01 00:00:00.0000, 3.639511644663735E+07, -5.357947013890712E+08, -5.456350364597827E+06,
$$EOE